{
    "CCSDS_OMM_VERS": "3.0",
    "COMMENT": "GENERATED VIA SPACE-TRACK.ORG API",
    "CREATION_DATE": "2025-11-22T22:56:46",
    "ORIGINATOR": "18 SPCS",
    "OBJECT_NAME": "GALILEO 6 (262)",
    "OBJECT_ID": "2014-050B",
    "CENTER_NAME": "EARTH",
    "REF_FRAME": "TEME",
    "TIME_SYSTEM": "UTC",
    "MEAN_ELEMENT_THEORY": "SGP4",
    "EPOCH": "2025-11-22T03:55:30.032256",
    "MEAN_MOTION": "1.85520571",
    "ECCENTRICITY": "0.16465210",
    "INCLINATION": "49.1167",
    "RA_OF_ASC_NODE": "280.9855",
    "ARG_OF_PERICENTER": "172.2584",
    "MEAN_ANOMALY": "190.6672",
    "EPHEMERIS_TYPE": "0",
    "CLASSIFICATION_TYPE": "U",
    "NORAD_CAT_ID": "40129",
    "ELEMENT_SET_NO": "999",
    "REV_AT_EPOCH": "7664",
    "BSTAR": "0.00000000000000",
    "MEAN_MOTION_DOT": "-0.00000051",
    "MEAN_MOTION_DDOT": "0.0000000000000",
    "SEMIMAJOR_AXIS": "27977.385",
    "PERIOD": "776.194",
    "APOAPSIS": "26205.786",
    "PERIAPSIS": "16992.715",
    "OBJECT_TYPE": "PAYLOAD",
    "RCS_SIZE": "LARGE",
    "COUNTRY_CODE": "ESA",
    "LAUNCH_DATE": "2014-08-22",
    "SITE": "FRGUI",
    "DECAY_DATE": null,
    "FILE": "4894345",
    "GP_ID": "303271567",
    "TLE_LINE0": "0 GALILEO 6 (262)",
    "TLE_LINE1": "1 40129U 14050B   25326.16354204 -.00000051  00000-0  00000+0 0  9995",
    "TLE_LINE2": "2 40129  49.1167 280.9855 1646521 172.2584 190.6672  1.85520571 76645"
}